{
  "type": "FeatureCollection",
  "features": [
    {
      "type": "Feature",
      "properties": {
        "norad_id": 34141,
        "name": "COSMOS 2251 DEB",
        "group": "cosmos-2251-debris",
        "lat": -45.057428129337644,
        "lon": -123.25588043814119,
        "alt_km": 739.9761407519318,
        "timestamp": "2025-12-06T18:50:10.563600+00:00",
        "meta_object_name": "COSMOS 2251 DEB",
        "meta_object_id": "1993-036LN",
        "meta_epoch": "2025-12-06T02:59:30.264576",
        "meta_mean_motion": 14.49126961,
        "meta_eccentricity": 0.00478356,
        "meta_inclination": 74.0124,
        "meta_ra_of_asc_node": 41.2886,
        "meta_arg_of_pericenter": 129.7573,
        "meta_mean_anomaly": 254.3107,
        "meta_ephemeris_type": 0,
        "meta_classification_type": "U",
        "meta_norad_cat_id": 34141,
        "meta_element_set_no": 999,
        "meta_rev_at_epoch": 87598,
        "meta_bstar": 0.0025922799,
        "meta_mean_motion_dot": 9.988e-05,
        "meta_mean_motion_ddot": 0,
        "tle_line1": "1 34141U 93036LN  25340.12465584  .00009988  00000+0  25923-2 0  9999",
        "tle_line2": "2 34141  74.0124  41.2886 0047835 129.7573 254.3107 14.49126961875985"
      },
      "geometry": {
        "type": "Point",
        "coordinates": [
          -123.25588043814119,
          -45.057428129337644
        ]
      }
    },
    {
      "type": "Feature",
      "properties": {
        "norad_id": 34270,
        "name": "COSMOS 2251 DEB",
        "group": "cosmos-2251-debris",
        "lat": -21.581293195686595,
        "lon": 144.61456609998027,
        "alt_km": 681.3513874387118,
        "timestamp": "2025-12-06T18:50:10.563610+00:00",
        "meta_object_name": "COSMOS 2251 DEB",
        "meta_object_id": "1993-036LQ",
        "meta_epoch": "2025-12-06T06:26:55.466592",
        "meta_mean_motion": 14.65097027,
        "meta_eccentricity": 0.00477513,
        "meta_inclination": 74.011,
        "meta_ra_of_asc_node": 319.0964,
        "meta_arg_of_pericenter": 113.8746,
        "meta_mean_anomaly": 246.7436,
        "meta_ephemeris_type": 0,
        "meta_classification_type": "U",
        "meta_norad_cat_id": 34270,
        "meta_element_set_no": 999,
        "meta_rev_at_epoch": 89001,
        "meta_bstar": 0.00060270676,
        "meta_mean_motion_dot": 3.261e-05,
        "meta_mean_motion_ddot": 0,
        "tle_line1": "1 34270U 93036LQ  25340.26869753  .00003261  00000+0  60271-3 0  9997",
        "tle_line2": "2 34270  74.0110 319.0964 0047751 113.8746 246.7436 14.65097027890018"
      },
      "geometry": {
        "type": "Point",
        "coordinates": [
          144.61456609998027,
          -21.581293195686595
        ]
      }
    },
    {
      "type": "Feature",
      "properties": {
        "norad_id": 34271,
        "name": "COSMOS 2251 DEB",
        "group": "cosmos-2251-debris",
        "lat": 28.27683244214356,
        "lon": -140.23729952016896,
        "alt_km": 665.2931162643672,
        "timestamp": "2025-12-06T18:50:10.563620+00:00",
        "meta_object_name": "COSMOS 2251 DEB",
        "meta_object_id": "1993-036LR",
        "meta_epoch": "2025-12-06T03:05:41.750880",
        "meta_mean_motion": 14.70540007,
        "meta_eccentricity": 0.00194782,
        "meta_inclination": 74.0209,
        "meta_ra_of_asc_node": 212.1693,
        "meta_arg_of_pericenter": 267.2161,
        "meta_mean_anomaly": 251.3924,
        "meta_ephemeris_type": 0,
        "meta_classification_type": "U",
        "meta_norad_cat_id": 34271,
        "meta_element_set_no": 999,
        "meta_rev_at_epoch": 88137,
        "meta_bstar": 0.0028907826,
        "meta_mean_motion_dot": 0.00017617,
        "meta_mean_motion_ddot": 0,
        "tle_line1": "1 34271U 93036LR  25340.12895545  .00017617  00000+0  28908-2 0  9991",
        "tle_line2": "2 34271  74.0209 212.1693 0019478 267.2161 251.3924 14.70540007881370"
      },
      "geometry": {
        "type": "Point",
        "coordinates": [
          -140.23729952016896,
          28.27683244214356
        ]
      }
    },
    {
      "type": "Feature",
      "properties": {
        "norad_id": 34273,
        "name": "COSMOS 2251 DEB",
        "group": "cosmos-2251-debris",
        "lat": -66.1839966567298,
        "lon": -40.75733674366028,
        "alt_km": 687.3725616799929,
        "timestamp": "2025-12-06T18:50:10.563630+00:00",
        "meta_object_name": "COSMOS 2251 DEB",
        "meta_object_id": "1993-036LT",
        "meta_epoch": "2025-12-06T07:55:50.143008",
        "meta_mean_motion": 14.61127839,
        "meta_eccentricity": 0.00144106,
        "meta_inclination": 74.0364,
        "meta_ra_of_asc_node": 99.6809,
        "meta_arg_of_pericenter": 225.2974,
        "meta_mean_anomaly": 157.4749,
        "meta_ephemeris_type": 0,
        "meta_classification_type": "U",
        "meta_norad_cat_id": 34273,
        "meta_element_set_no": 999,
        "meta_rev_at_epoch": 88528,
        "meta_bstar": 0.0019624001,
        "meta_mean_motion_dot": 9.651e-05,
        "meta_mean_motion_ddot": 0,
        "tle_line1": "1 34273U 93036LT  25340.33044147  .00009651  00000+0  19624-2 0  9994",
        "tle_line2": "2 34273  74.0364  99.6809 0014410 225.2974 157.4749 14.61127839885287"
      },
      "geometry": {
        "type": "Point",
        "coordinates": [
          -40.75733674366028,
          -66.1839966567298
        ]
      }
    },
    {
      "type": "Feature",
      "properties": {
        "norad_id": 34274,
        "name": "COSMOS 2251 DEB",
        "group": "cosmos-2251-debris",
        "lat": -70.29573393304945,
        "lon": -46.74179093243602,
        "alt_km": 671.1484240678947,
        "timestamp": "2025-12-06T18:50:10.563640+00:00",
        "meta_object_name": "COSMOS 2251 DEB",
        "meta_object_id": "1993-036LU",
        "meta_epoch": "2025-12-06T00:25:53.781312",
        "meta_mean_motion": 14.6464687,
        "meta_eccentricity": 0.00224049,
        "meta_inclination": 74.0052,
        "meta_ra_of_asc_node": 81.5167,
        "meta_arg_of_pericenter": 231.7573,
        "meta_mean_anomaly": 304.6417,
        "meta_ephemeris_type": 0,
        "meta_classification_type": "U",
        "meta_norad_cat_id": 34274,
        "meta_element_set_no": 999,
        "meta_rev_at_epoch": 88577,
        "meta_bstar": 0.0020142788,
        "meta_mean_motion_dot": 0.00010735,
        "meta_mean_motion_ddot": 0,
        "tle_line1": "1 34274U 93036LU  25340.01798358  .00010735  00000+0  20143-2 0  9993",
        "tle_line2": "2 34274  74.0052  81.5167 0022404 231.7573 304.6417 14.64646870885774"
      },
      "geometry": {
        "type": "Point",
        "coordinates": [
          -46.74179093243602,
          -70.29573393304945
        ]
      }
    },
    {
      "type": "Feature",
      "properties": {
        "norad_id": 34276,
        "name": "COSMOS 2251 DEB",
        "group": "cosmos-2251-debris",
        "lat": -2.649730319546842,
        "lon": 95.88238289121388,
        "alt_km": 711.79138726362,
        "timestamp": "2025-12-06T18:50:10.563650+00:00",
        "meta_object_name": "COSMOS 2251 DEB",
        "meta_object_id": "1993-036LW",
        "meta_epoch": "2025-12-05T18:41:25.365984",
        "meta_mean_motion": 14.57148675,
        "meta_eccentricity": 0.00227846,
        "meta_inclination": 74.0234,
        "meta_ra_of_asc_node": 98.5538,
        "meta_arg_of_pericenter": 245.7566,
        "meta_mean_anomaly": 235.877,
        "meta_ephemeris_type": 0,
        "meta_classification_type": "U",
        "meta_norad_cat_id": 34276,
        "meta_element_set_no": 999,
        "meta_rev_at_epoch": 88491,
        "meta_bstar": 0.0016706564,
        "meta_mean_motion_dot": 7.541e-05,
        "meta_mean_motion_ddot": 0,
        "tle_line1": "1 34276U 93036LW  25339.77876581  .00007541  00000+0  16707-2 0  9993",
        "tle_line2": "2 34276  74.0234  98.5538 0022784 245.7566 235.8770 14.57148675884910"
      },
      "geometry": {
        "type": "Point",
        "coordinates": [
          95.88238289121388,
          -2.649730319546842
        ]
      }
    },
    {
      "type": "Feature",
      "properties": {
        "norad_id": 34297,
        "name": "COSMOS 2251 DEB",
        "group": "cosmos-2251-debris",
        "lat": 74.03825905157892,
        "lon": 25.41931563917175,
        "alt_km": 761.1889072278564,
        "timestamp": "2025-12-06T18:50:10.563659+00:00",
        "meta_object_name": "COSMOS 2251 DEB",
        "meta_object_id": "1993-036MT",
        "meta_epoch": "2025-12-06T03:25:47.197632",
        "meta_mean_motion": 14.3661939,
        "meta_eccentricity": 0.00169858,
        "meta_inclination": 74.0482,
        "meta_ra_of_asc_node": 296.346,
        "meta_arg_of_pericenter": 6.3848,
        "meta_mean_anomaly": 4.8369,
        "meta_ephemeris_type": 0,
        "meta_classification_type": "U",
        "meta_norad_cat_id": 34297,
        "meta_element_set_no": 999,
        "meta_rev_at_epoch": 87970,
        "meta_bstar": 0.00025951912,
        "meta_mean_motion_dot": 7.39e-06,
        "meta_mean_motion_ddot": 0,
        "tle_line1": "1 34297U 93036MT  25340.14290738  .00000739  00000+0  25952-3 0  9998",
        "tle_line2": "2 34297  74.0482 296.3460 0016985   6.3848   4.8369 14.36619390879703"
      },
      "geometry": {
        "type": "Point",
        "coordinates": [
          25.41931563917175,
          74.03825905157892
        ]
      }
    }
  ]
}